start=new Date('2022-04-19T00:00:00.000Z').valueOf();
sats=[{"REF_FRAME":"TEME","PERIAPSIS":"538.029","TLE_LINE2":"2 50157  53.2158 157.2300 0002468  31.7499 278.3691 15.08842937  3595","RCS_SIZE":"LARGE","MEAN_ELEMENT_THEORY":"SGP4","OBJECT_ID":"2021-125B","PERIOD":"95.437","INCLINATION":"53.2158","BSTAR":"0.00141830000000","APOAPSIS":"541.444","FILE":"3407402","MEAN_ANOMALY":"278.3691","EPOCH":"2022-04-18T22:00:00.999936","CENTER_NAME":"EARTH","DECAY_DATE":null,"MEAN_MOTION_DOT":"0.00022359","OBJECT_TYPE":"PAYLOAD","TLE_LINE1":"1 50157U 21125B   22108.91667824  .00022359  00000-0  14183-2 0  9995","COUNTRY_CODE":"US","ELEMENT_SET_NO":"999","REV_AT_EPOCH":"359","ARG_OF_PERICENTER":"31.7499","MEAN_MOTION":"15.08842937","MEAN_MOTION_DDOT":"0.0000000000000","ECCENTRICITY":"0.00024680","RA_OF_ASC_NODE":"157.2300","NORAD_CAT_ID":"50157","SITE":"AFWTR","LAUNCH_DATE":"2021-12-18","EPHEMERIS_TYPE":"0","SEMIMAJOR_AXIS":"6917.871","CLASSIFICATION_TYPE":"U","TIME_SYSTEM":"UTC","GP_ID":"201581140","OBJECT_NAME":"STARLINK-3313"},{"MEAN_ELEMENT_THEORY":"SGP4","PERIOD":"95.438","OBJECT_ID":"2021-125C","PERIAPSIS":"538.158","REF_FRAME":"TEME","RCS_SIZE":"LARGE","TLE_LINE2":"2 50158  53.2143 157.2310 0002317  32.3098 337.8029 15.08834867  3607","FILE":"3407402","MEAN_ANOMALY":"337.8029","APOAPSIS":"541.364","BSTAR":"0.00145950000000","INCLINATION":"53.2143","ARG_OF_PERICENTER":"32.3098","REV_AT_EPOCH":"360","ELEMENT_SET_NO":"999","COUNTRY_CODE":"US","MEAN_MOTION_DDOT":"0.0000000000000","MEAN_MOTION":"15.08834867","DECAY_DATE":null,"EPOCH":"2022-04-18T22:00:00.999936","CENTER_NAME":"EARTH","TLE_LINE1":"1 50158U 21125C   22108.91667824  .00023013  00000-0  14595-2 0  9991","OBJECT_TYPE":"PAYLOAD","MEAN_MOTION_DOT":"0.00023013","EPHEMERIS_TYPE":"0","LAUNCH_DATE":"2021-12-18","OBJECT_NAME":"STARLINK-3309","GP_ID":"201582392","TIME_SYSTEM":"UTC","CLASSIFICATION_TYPE":"U","SEMIMAJOR_AXIS":"6917.896","ECCENTRICITY":"0.00023170","SITE":"AFWTR","NORAD_CAT_ID":"50158","RA_OF_ASC_NODE":"157.2310"},{"ECCENTRICITY":"0.00021060","SITE":"AFWTR","NORAD_CAT_ID":"50159","RA_OF_ASC_NODE":"157.2282","EPHEMERIS_TYPE":"0","LAUNCH_DATE":"2021-12-18","OBJECT_NAME":"STARLINK-3297","GP_ID":"201582643","CLASSIFICATION_TYPE":"U","TIME_SYSTEM":"UTC","SEMIMAJOR_AXIS":"6917.954","DECAY_DATE":null,"CENTER_NAME":"EARTH","EPOCH":"2022-04-18T22:00:00.999936","TLE_LINE1":"1 50159U 21125D   22108.91667824  .00021746  00000-0  13811-2 0  9993","OBJECT_TYPE":"PAYLOAD","MEAN_MOTION_DOT":"0.00021746","ARG_OF_PERICENTER":"29.1669","REV_AT_EPOCH":"360","ELEMENT_SET_NO":"999","COUNTRY_CODE":"US","MEAN_MOTION_DDOT":"0.0000000000000","MEAN_MOTION":"15.08815936","APOAPSIS":"541.276","BSTAR":"0.00138110000000","INCLINATION":"53.2147","FILE":"3407402","MEAN_ANOMALY":"1.0620","PERIAPSIS":"538.362","REF_FRAME":"TEME","RCS_SIZE":"LARGE","TLE_LINE2":"2 50159  53.2147 157.2282 0002106  29.1669   1.0620 15.08815936  3607","MEAN_ELEMENT_THEORY":"SGP4","PERIOD":"95.439","OBJECT_ID":"2021-125D"},{"OBJECT_ID":"2021-125E","PERIOD":"95.438","MEAN_ELEMENT_THEORY":"SGP4","RCS_SIZE":"LARGE","TLE_LINE2":"2 50160  53.2141 157.2301 0002522  35.0483 315.1295 15.08838423  3565","REF_FRAME":"TEME","PERIAPSIS":"538.006","MEAN_ANOMALY":"315.1295","FILE":"3407402","BSTAR":"0.00140390000000","APOAPSIS":"541.495","INCLINATION":"53.2141","MEAN_MOTION":"15.08838423","MEAN_MOTION_DDOT":"0.0000000000000","REV_AT_EPOCH":"356","ARG_OF_PERICENTER":"35.0483","COUNTRY_CODE":"US","ELEMENT_SET_NO":"999","OBJECT_TYPE":"PAYLOAD","TLE_LINE1":"1 50160U 21125E   22108.91667824  .00022125  00000-0  14039-2 0  9990","MEAN_MOTION_DOT":"0.00022125","DECAY_DATE":null,"EPOCH":"2022-04-18T22:00:00.999936","CENTER_NAME":"EARTH","GP_ID":"201581391","OBJECT_NAME":"STARLINK-3288","SEMIMAJOR_AXIS":"6917.885","CLASSIFICATION_TYPE":"U","TIME_SYSTEM":"UTC","LAUNCH_DATE":"2021-12-18","EPHEMERIS_TYPE":"0","NORAD_CAT_ID":"50160","SITE":"AFWTR","RA_OF_ASC_NODE":"157.2301","ECCENTRICITY":"0.00025220"},{"MEAN_ELEMENT_THEORY":"SGP4","OBJECT_ID":"2021-125F","PERIOD":"95.438","REF_FRAME":"TEME","PERIAPSIS":"538.196","RCS_SIZE":"LARGE","TLE_LINE2":"2 50161  53.2159 157.2310 0002254  30.4831 299.5900 15.08836695 21481","FILE":"3407352","MEAN_ANOMALY":"299.5900","BSTAR":"0.00148210000000","APOAPSIS":"541.315","INCLINATION":"53.2159","REV_AT_EPOCH":"2148","ARG_OF_PERICENTER":"30.4831","COUNTRY_CODE":"US","ELEMENT_SET_NO":"999","MEAN_MOTION":"15.08836695","MEAN_MOTION_DDOT":"0.0000000000000","DECAY_DATE":null,"CENTER_NAME":"EARTH","EPOCH":"2022-04-18T22:00:00.999936","OBJECT_TYPE":"PAYLOAD","TLE_LINE1":"1 50161U 21125F   22108.91667824  .00023377  00000-0  14821-2 0  9990","MEAN_MOTION_DOT":"0.00023377","LAUNCH_DATE":"2021-12-18","EPHEMERIS_TYPE":"0","GP_ID":"201557672","OBJECT_NAME":"STARLINK-3304","SEMIMAJOR_AXIS":"6917.890","TIME_SYSTEM":"UTC","CLASSIFICATION_TYPE":"U","ECCENTRICITY":"0.00022540","NORAD_CAT_ID":"50161","SITE":"AFWTR","RA_OF_ASC_NODE":"157.2310"},{"TLE_LINE2":"2 50162  53.2099 124.4235 0001667  42.6583 191.7952 15.76815577 21833","RCS_SIZE":"LARGE","PERIAPSIS":"338.352","REF_FRAME":"TEME","PERIOD":"91.323","OBJECT_ID":"2021-125G","MEAN_ELEMENT_THEORY":"SGP4","INCLINATION":"53.2099","APOAPSIS":"340.592","BSTAR":"-0.00079769000000","MEAN_ANOMALY":"191.7952","FILE":"3406414","MEAN_MOTION_DOT":"-0.00129736","TLE_LINE1":"1 50162U 21125G   22107.66667824 -.00129736  00000-0 -79769-3 0  9993","OBJECT_TYPE":"PAYLOAD","EPOCH":"2022-04-17T16:00:00.999936","CENTER_NAME":"EARTH","DECAY_DATE":null,"MEAN_MOTION_DDOT":"0.0000000000000","MEAN_MOTION":"15.76815577","ELEMENT_SET_NO":"999","COUNTRY_CODE":"US","ARG_OF_PERICENTER":"42.6583","REV_AT_EPOCH":"2183","RA_OF_ASC_NODE":"124.4235","SITE":"AFWTR","NORAD_CAT_ID":"50162","ECCENTRICITY":"0.00016670","TIME_SYSTEM":"UTC","CLASSIFICATION_TYPE":"U","SEMIMAJOR_AXIS":"6717.607","OBJECT_NAME":"STARLINK-3303","GP_ID":"201512952","EPHEMERIS_TYPE":"0","LAUNCH_DATE":"2021-12-18"},{"MEAN_MOTION_DDOT":"0.0000000000000","MEAN_MOTION":"15.25174287","ARG_OF_PERICENTER":"37.0041","REV_AT_EPOCH":"363","ELEMENT_SET_NO":"999","COUNTRY_CODE":"US","TLE_LINE1":"1 50163U 21125H   22108.91667824 -.00296614  00000-0 -12134-1 0  9994","OBJECT_TYPE":"PAYLOAD","MEAN_MOTION_DOT":"-0.00296614","DECAY_DATE":null,"EPOCH":"2022-04-18T22:00:00.999936","CENTER_NAME":"EARTH","OBJECT_NAME":"STARLINK-3306","GP_ID":"201582143","CLASSIFICATION_TYPE":"U","TIME_SYSTEM":"UTC","SEMIMAJOR_AXIS":"6868.399","EPHEMERIS_TYPE":"0","LAUNCH_DATE":"2021-12-18","SITE":"AFWTR","NORAD_CAT_ID":"50163","RA_OF_ASC_NODE":"138.7395","ECCENTRICITY":"0.00017500","PERIOD":"94.415","OBJECT_ID":"2021-125H","MEAN_ELEMENT_THEORY":"SGP4","RCS_SIZE":"LARGE","TLE_LINE2":"2 50163  53.2174 138.7395 0001750  37.0041 320.0409 15.25174287  3635","PERIAPSIS":"489.062","REF_FRAME":"TEME","MEAN_ANOMALY":"320.0409","FILE":"3407402","APOAPSIS":"491.466","BSTAR":"-0.01213400000000","INCLINATION":"53.2174"},{"MEAN_ELEMENT_THEORY":"SGP4","PERIOD":"91.330","OBJECT_ID":"2021-125J","PERIAPSIS":"334.062","REF_FRAME":"TEME","RCS_SIZE":"LARGE","TLE_LINE2":"2 50164  53.2094 124.1098 0008508 274.0414 208.4368 15.76708041 21945","FILE":"3407366","MEAN_ANOMALY":"208.4368","APOAPSIS":"345.493","BSTAR":"0.00013908000000","INCLINATION":"53.2094","ARG_OF_PERICENTER":"274.0414","REV_AT_EPOCH":"2194","ELEMENT_SET_NO":"999","COUNTRY_CODE":"US","MEAN_MOTION_DDOT":"0.0000000000000","MEAN_MOTION":"15.76708041","DECAY_DATE":null,"CENTER_NAME":"EARTH","EPOCH":"2022-04-18T22:00:00.999936","TLE_LINE1":"1 50164U 21125J   22108.91667824  .00022184  00000-0  13908-3 0  9994","OBJECT_TYPE":"PAYLOAD","MEAN_MOTION_DOT":"0.00022184","EPHEMERIS_TYPE":"0","LAUNCH_DATE":"2021-12-18","OBJECT_NAME":"STARLINK-3307","GP_ID":"201557586","TIME_SYSTEM":"UTC","CLASSIFICATION_TYPE":"U","SEMIMAJOR_AXIS":"6717.912","ECCENTRICITY":"0.00085080","SITE":"AFWTR","NORAD_CAT_ID":"50164","RA_OF_ASC_NODE":"124.1098"},{"MEAN_ELEMENT_THEORY":"SGP4","OBJECT_ID":"2021-125K","PERIOD":"95.438","REF_FRAME":"TEME","PERIAPSIS":"538.231","RCS_SIZE":"LARGE","TLE_LINE2":"2 50165  53.2176 157.2205 0002211  33.1070  16.9874 15.08834894 18885","FILE":"3407345","MEAN_ANOMALY":"16.9874","BSTAR":"0.00136350000000","APOAPSIS":"541.291","INCLINATION":"53.2176","REV_AT_EPOCH":"1888","ARG_OF_PERICENTER":"33.1070","COUNTRY_CODE":"US","ELEMENT_SET_NO":"999","MEAN_MOTION":"15.08834894","MEAN_MOTION_DDOT":"0.0000000000000","DECAY_DATE":null,"EPOCH":"2022-04-18T22:00:00.999936","CENTER_NAME":"EARTH","OBJECT_TYPE":"PAYLOAD","TLE_LINE1":"1 50165U 21125K   22108.91667824  .00021476  00000-0  13635-2 0  9994","MEAN_MOTION_DOT":"0.00021476","LAUNCH_DATE":"2021-12-18","EPHEMERIS_TYPE":"0","GP_ID":"201557557","OBJECT_NAME":"STARLINK-3298","SEMIMAJOR_AXIS":"6917.896","TIME_SYSTEM":"UTC","CLASSIFICATION_TYPE":"U","ECCENTRICITY":"0.00022110","NORAD_CAT_ID":"50165","SITE":"AFWTR","RA_OF_ASC_NODE":"157.2205"},{"NORAD_CAT_ID":"50166","SITE":"AFWTR","RA_OF_ASC_NODE":"147.2130","ECCENTRICITY":"0.00015540","GP_ID":"201582393","OBJECT_NAME":"STARLINK-3305","SEMIMAJOR_AXIS":"6917.929","CLASSIFICATION_TYPE":"U","TIME_SYSTEM":"UTC","LAUNCH_DATE":"2021-12-18","EPHEMERIS_TYPE":"0","OBJECT_TYPE":"PAYLOAD","TLE_LINE1":"1 50166U 21125L   22108.91667824  .00037473  00000-0  23611-2 0  9994","MEAN_MOTION_DOT":"0.00037473","DECAY_DATE":null,"CENTER_NAME":"EARTH","EPOCH":"2022-04-18T22:00:00.999936","MEAN_MOTION":"15.08824220","MEAN_MOTION_DDOT":"0.0000000000000","REV_AT_EPOCH":"359","ARG_OF_PERICENTER":"42.7382","COUNTRY_CODE":"US","ELEMENT_SET_NO":"999","BSTAR":"0.00236110000000","APOAPSIS":"540.869","INCLINATION":"53.2145","MEAN_ANOMALY":"242.5065","FILE":"3407402","RCS_SIZE":"LARGE","TLE_LINE2":"2 50166  53.2145 147.2130 0001554  42.7382 242.5065 15.08824220  3592","REF_FRAME":"TEME","PERIAPSIS":"538.719","OBJECT_ID":"2021-125L","PERIOD":"95.439","MEAN_ELEMENT_THEORY":"SGP4"}];
